CTC2_L_00427016-03
1 57388U 22237SW  26070.40847222  .00000000  00000+0  00000-0 0  9990
2 57388  75.0000 180.0000 0000000   0.0000   0.0000 12.53473438    15
CTC2_L_00427016-04
1 57389U 26024YT  26070.40847222  .00000000  00000+0  00000-0 0  9999
2 57389  75.0000 180.0000 0000000   0.0000  90.0000 12.53473438    15
CTC2_L_00427017-01
1 57390U 26495CK  26070.40847222  .00000000  00000+0  00000-0 0  9993
2 57390  75.0000 192.0000 0000000   0.0000 192.0000 12.53473438    13
CTC2_L_00427017-02
1 57391U 26758SJ  26070.40847222  .00000000  00000+0  00000-0 0  9996
2 57391  75.0000 192.0000 0000000   0.0000 282.0000 12.53473438    14
CTC2_L_00427017-03
1 57392U 26685ZN  26070.40847222  .00000000  00000+0  00000-0 0  9996
2 57392  75.0000 192.0000 0000000   0.0000  12.0000 12.53473438    16
CTC2_L_00427017-04
1 57393U 25293AD  26070.40847222  .00000000  00000+0  00000-0 0  9991
2 57393  75.0000 192.0000 0000000   0.0000 102.0000 12.53473438    17
CTC2_L_00427018-01
1 57394U 25902JK  26070.40847222  .00000000  00000+0  00000-0 0  9999
2 57394  75.0000 204.0000 0000000   0.0000 204.0000 12.53473438    15
CTC2_L_00427018-02
1 57395U 22374DY  26070.40847222  .00000000  00000+0  00000-0 0  9990
2 57395  75.0000 204.0000 0000000   0.0000 294.0000 12.53473438    15
CTC2_L_00427018-03
1 57396U 26595ZH  26070.40847222  .00000000  00000+0  00000-0 0  9990
2 57396  75.0000 204.0000 0000000   0.0000  24.0000 12.53473438    17
CTC2_L_00427018-04
1 57397U 25785VT  26070.40847222  .00000000  00000+0  00000-0 0  9991
2 57397  75.0000 204.0000 0000000   0.0000 114.0000 12.53473438    18
CTC2_L_00427019-01
1 57398U 25690CT  26070.40847222  .00000000  00000+0  00000-0 0  9997
2 57398  75.0000 216.0000 0000000   0.0000 216.0000 12.53473438    15
CTC2_L_00427019-02
1 57399U 23131IU  26070.40847222  .00000000  00000+0  00000-0 0  9996
2 57399  75.0000 216.0000 0000000   0.0000 306.0000 12.53473438    16
CTC2_L_00427019-03
1 57400U 23311KS  26070.40847222  .00000000  00000+0  00000-0 0  9999
2 57400  75.0000 216.0000 0000000   0.0000  36.0000 12.53473438    19
CTC2_L_00427019-04
1 57401U 25639FZ  26070.40847222  .00000000  00000+0  00000-0 0  9995
2 57401  75.0000 216.0000 0000000   0.0000 126.0000 12.53473438    10
CTC2_L_00427020-01
1 57402U 22172LY  26070.40847222  .00000000  00000+0  00000-0 0  9995
2 57402  75.0000 228.0000 0000000   0.0000 228.0000 12.53473438    17
CTC2_L_00427020-02
1 57403U 26660AL  26070.40847222  .00000000  00000+0  00000-0 0  9992
2 57403  75.0000 228.0000 0000000   0.0000 318.0000 12.53473438    18
CTC2_L_00427020-03
1 57404U 26187SY  26070.40847222  .00000000  00000+0  00000-0 0  9997
2 57404  75.0000 228.0000 0000000   0.0000  48.0000 12.53473438    19
CTC2_L_00427020-04
1 57405U 23053RG  26070.40847222  .00000000  00000+0  00000-0 0  9997
2 57405  75.0000 228.0000 0000000   0.0000 138.0000 12.53473438    10
CTC2_L_00427021-01
1 57406U 26883OI  26070.40847222  .00000000  00000+0  00000-0 0  9992
2 57406  75.0000 240.0000 0000000   0.0000 240.0000 12.53473438    19
CTC2_L_00427021-02
1 57407U 24289CK  26070.40847222  .00000000  00000+0  00000-0 0  9991
2 57407  75.0000 240.0000 0000000   0.0000 330.0000 12.53473438    10
CTC2_L_00427021-03
1 57408U 22862SG  26070.40847222  .00000000  00000+0  00000-0 0  9997
2 57408  75.0000 240.0000 0000000   0.0000  60.0000 12.53473438    11
CTC2_L_00427021-04
1 57409U 23334FR  26070.40847222  .00000000  00000+0  00000-0 0  9993
2 57409  75.0000 240.0000 0000000   0.0000 150.0000 12.53473438    12
CTC2_L_00427022-01
1 57410U 22580BD  26070.40847222  .00000000  00000+0  00000-0 0  9997
2 57410  75.0000 252.0000 0000000   0.0000 252.0000 12.53473438    10
CTC2_L_00427022-02
1 57411U 23196DE  26070.40847222  .00000000  00000+0  00000-0 0  9992
2 57411  75.0000 252.0000 0000000   0.0000 342.0000 12.53473438    11
CTC2_L_00427022-03
1 57412U 22787TS  26070.40847222  .00000000  00000+0  00000-0 0  9998
2 57412  75.0000 252.0000 0000000   0.0000  72.0000 12.53473438    12
CTC2_L_00427022-04
1 57413U 23469DG  26070.40847222  .00000000  00000+0  00000-0 0  9997
2 57413  75.0000 252.0000 0000000   0.0000 162.0000 12.53473438    13
CTC2_L_00427023-01
1 57414U 22488XL  26070.40847222  .00000000  00000+0  00000-0 0  9998
2 57414  75.0000 264.0000 0000000   0.0000 264.0000 12.53473438    10
CTC2_L_00427023-02
1 57415U 24757FT  26070.40847222  .00000000  00000+0  00000-0 0  9990
2 57415  75.0000 264.0000 0000000   0.0000 354.0000 12.53473438    11
CTC2_L_00427023-03
1 57416U 25556OO  26070.40847222  .00000000  00000+0  00000-0 0  9999
2 57416  75.0000 264.0000 0000000   0.0000  84.0000 12.53473438    12
CTC2_L_00427023-04
1 57417U 26593QE  26070.40847222  .00000000  00000+0  00000-0 0  9992
2 57417  75.0000 264.0000 0000000   0.0000 174.0000 12.53473438    13
CTC2_L_00427024-01
1 57418U 25376LX  26070.40847222  .00000000  00000+0  00000-0 0  9991
2 57418  75.0000 276.0000 0000000   0.0000 276.0000 12.53473438    10
CTC2_L_00427024-02
1 57419U 26929TM  26070.40847222  .00000000  00000+0  00000-0 0  9997
2 57419  75.0000 276.0000 0000000   0.0000   6.0000 12.53473438    12
CTC2_L_00427024-03
1 57420U 22352CJ  26070.40847222  .00000000  00000+0  00000-0 0  9995
2 57420  75.0000 276.0000 0000000   0.0000  96.0000 12.53473438    13
CTC2_L_00427024-04
1 57421U 26085NC  26070.40847222  .00000000  00000+0  00000-0 0  9993
2 57421  75.0000 276.0000 0000000   0.0000 186.0000 12.53473438    14
CTC2_L_00427025-01
1 57422U 25229PH  26070.40847222  .00000000  00000+0  00000-0 0  9993
2 57422  75.0000 288.0000 0000000   0.0000 288.0000 12.53473438    11
CTC2_L_00427025-02
1 57423U 24195DS  26070.40847222  .00000000  00000+0  00000-0 0  9995
2 57423  75.0000 288.0000 0000000   0.0000  18.0000 12.53473438    13
CTC2_L_00427025-03
1 57424U 24643CW  26070.40847222  .00000000  00000+0  00000-0 0  9994
2 57424  75.0000 288.0000 0000000   0.0000 108.0000 12.53473438    14
CTC2_L_00427025-04
1 57425U 26460SM  26070.40847222  .00000000  00000+0  00000-0 0  9994
2 57425  75.0000 288.0000 0000000   0.0000 198.0000 12.53473438    14
CTC2_L_00427026-01
1 57426U 23160GR  26070.40847222  .00000000  00000+0  00000-0 0  9999
2 57426  75.0000 300.0000 0000000   0.0000 300.0000 12.53473438    15
CTC2_L_00427026-02
1 57427U 25422EH  26070.40847222  .00000000  00000+0  00000-0 0  9993
2 57427  75.0000 300.0000 0000000   0.0000  30.0000 12.53473438    16
CTC2_L_00427026-03
1 57428U 23294FA  26070.40847222  .00000000  00000+0  00000-0 0  9999
2 57428  75.0000 300.0000 0000000   0.0000 120.0000 12.53473438    17
CTC2_L_00427026-04
1 57429U 26455IU  26070.40847222  .00000000  00000+0  00000-0 0  9992
2 57429  75.0000 300.0000 0000000   0.0000 210.0000 12.53473438    18
CTC2_L_00427027-01
1 57430U 23278RZ  26070.40847222  .00000000  00000+0  00000-0 0  9994
2 57430  75.0000 312.0000 0000000   0.0000 312.0000 12.53473438    16
CTC2_L_00427027-02
1 57431U 25781QI  26070.40847222  .00000000  00000+0  00000-0 0  9996
2 57431  75.0000 312.0000 0000000   0.0000  42.0000 12.53473438    17
CTC2_L_00427027-03
1 57432U 22849VX  26070.40847222  .00000000  00000+0  00000-0 0  9999
2 57432  75.0000 312.0000 0000000   0.0000 132.0000 12.53473438    18
CTC2_L_00427027-04
1 57433U 23269RB  26070.40847222  .00000000  00000+0  00000-0 0  9997
2 57433  75.0000 312.0000 0000000   0.0000 222.0000 12.53473438    19
CTC2_L_00427028-01
1 57434U 25192VF  26070.40847222  .00000000  00000+0  00000-0 0  9995
2 57434  75.0000 324.0000 0000000   0.0000 324.0000 12.53473438    16
CTC2_L_00427028-02
1 57435U 24065WJ  26070.40847222  .00000000  00000+0  00000-0 0  9994
2 57435  75.0000 324.0000 0000000   0.0000  54.0000 12.53473438    17
CTC2_L_00427028-03
1 57436U 26007WD  26070.40847222  .00000000  00000+0  00000-0 0  9993
2 57436  75.0000 324.0000 0000000   0.0000 144.0000 12.53473438    18
CTC2_L_00427028-04
1 57437U 25780RB  26070.40847222  .00000000  00000+0  00000-0 0  9991
2 57437  75.0000 324.0000 0000000   0.0000 234.0000 12.53473438    19
CTC2_L_00427029-01
1 57438U 22854BO  26070.40847222  .00000000  00000+0  00000-0 0  9991
2 57438  75.0000 336.0000 0000000   0.0000 336.0000 12.53473438    16
CTC2_L_00427029-02
1 57439U 23897QW  26070.40847222  .00000000  00000+0  00000-0 0  9990
2 57439  75.0000 336.0000 0000000   0.0000  66.0000 12.53473438    17
CTC2_L_00427029-03
1 57440U 26576TU  26070.40847222  .00000000  00000+0  00000-0 0  9999
2 57440  75.0000 336.0000 0000000   0.0000 156.0000 12.53473438    19
CTC2_L_00427029-04
1 57441U 26404EE  26070.40847222  .00000000  00000+0  00000-0 0  9990
2 57441  75.0000 336.0000 0000000   0.0000 246.0000 12.53473438    10
CTC2_L_00427030-01
1 57442U 25866GY  26070.40847222  .00000000  00000+0  00000-0 0  9992
2 57442  75.0000 348.0000 0000000   0.0000 348.0000 12.53473438    17
CTC2_L_00427030-02
1 57443U 26695PP  26070.40847222  .00000000  00000+0  00000-0 0  9994
2 57443  75.0000 348.0000 0000000   0.0000  78.0000 12.53473438    18
CTC2_L_00427030-03
1 57444U 26984PK  26070.40847222  .00000000  00000+0  00000-0 0  9996
2 57444  75.0000 348.0000 0000000   0.0000 168.0000 12.53473438    19
CTC2_L_00427030-04
1 57445U 25345WZ  26070.40847222  .00000000  00000+0  00000-0 0  9997
2 57445  75.0000 348.0000 0000000   0.0000 258.0000 12.53473438    10
